CCSDS_OMM_VERS = 2.0
CREATION_DATE  = 
ORIGINATOR     = 

OBJECT_NAME    = UNKNOWN
OBJECT_ID      = 
CENTER_NAME    = EARTH
REF_FRAME      = TEME
TIME_SYSTEM    = UTC
MEAN_ELEMENT_THEORY = SGP/SGP4

EPOCH          = 2026-03-14T08:54:44.735904
MEAN_MOTION    = 12.55988468
ECCENTRICITY   = .0020553
INCLINATION    = 101.9672
RA_OF_ASC_NODE = 300.5502
ARG_OF_PERICENTER = 97.1328
MEAN_ANOMALY   = 80.0110

EPHEMERIS_TYPE = 0
CLASSIFICATION_TYPE = U
NORAD_CAT_ID   = 81536
ELEMENT_SET_NO = 999
REV_AT_EPOCH   = 56331
BSTAR          = .40975E-2
MEAN_MOTION_DOT = .629E-5
MEAN_MOTION_DDOT = 0

CCSDS_OMM_VERS = 2.0
CREATION_DATE  = 
ORIGINATOR     = 

OBJECT_NAME    = UNKNOWN
OBJECT_ID      = 
CENTER_NAME    = EARTH
REF_FRAME      = TEME
TIME_SYSTEM    = UTC
MEAN_ELEMENT_THEORY = SGP/SGP4

EPOCH          = 2026-03-14T07:29:45.972096
MEAN_MOTION    = 14.07162755
ECCENTRICITY   = .0076584
INCLINATION    = 71.0374
RA_OF_ASC_NODE = 279.7893
ARG_OF_PERICENTER = 12.8668
MEAN_ANOMALY   = 347.4381

EPHEMERIS_TYPE = 0
CLASSIFICATION_TYPE = U
NORAD_CAT_ID   = 81537
ELEMENT_SET_NO = 999
REV_AT_EPOCH   = 63334
BSTAR          = .30336E-3
MEAN_MOTION_DOT = .475E-5
MEAN_MOTION_DDOT = 0

CCSDS_OMM_VERS = 2.0
CREATION_DATE  = 
ORIGINATOR     = 

OBJECT_NAME    = UNKNOWN
OBJECT_ID      = 
CENTER_NAME    = EARTH
REF_FRAME      = TEME
TIME_SYSTEM    = UTC
MEAN_ELEMENT_THEORY = SGP/SGP4

EPOCH          = 2026-03-13T05:59:25.230048
MEAN_MOTION    = 13.18334014
ECCENTRICITY   = .0256752
INCLINATION    = 99.0714
RA_OF_ASC_NODE = 351.4925
ARG_OF_PERICENTER = 160.5393
MEAN_ANOMALY   = 200.5747

EPHEMERIS_TYPE = 0
CLASSIFICATION_TYPE = U
NORAD_CAT_ID   = 81552
ELEMENT_SET_NO = 999
REV_AT_EPOCH   = 59117
BSTAR          = .1688E-2
MEAN_MOTION_DOT = .751E-5
MEAN_MOTION_DDOT = 0

CCSDS_OMM_VERS = 2.0
CREATION_DATE  = 
ORIGINATOR     = 

OBJECT_NAME    = UNKNOWN
OBJECT_ID      = 
CENTER_NAME    = EARTH
REF_FRAME      = TEME
TIME_SYSTEM    = UTC
MEAN_ELEMENT_THEORY = SGP/SGP4

EPOCH          = 2026-03-11T12:05:33.995616
MEAN_MOTION    = 13.31541729
ECCENTRICITY   = .0247288
INCLINATION    = 67.2932
RA_OF_ASC_NODE = 88.9394
ARG_OF_PERICENTER = 18.7108
MEAN_ANOMALY   = 135.2939

EPHEMERIS_TYPE = 0
CLASSIFICATION_TYPE = U
NORAD_CAT_ID   = 81599
ELEMENT_SET_NO = 999
REV_AT_EPOCH   = 59689
BSTAR          = .213E-3
MEAN_MOTION_DOT = .59E-6
MEAN_MOTION_DDOT = 0

CCSDS_OMM_VERS = 2.0
CREATION_DATE  = 
ORIGINATOR     = 

OBJECT_NAME    = UNKNOWN
OBJECT_ID      = 
CENTER_NAME    = EARTH
REF_FRAME      = TEME
TIME_SYSTEM    = UTC
MEAN_ELEMENT_THEORY = SGP/SGP4

EPOCH          = 2026-03-13T16:51:44.560512
MEAN_MOTION    = 12.81411270
ECCENTRICITY   = .0146172
INCLINATION    = 56.4292
RA_OF_ASC_NODE = 315.8656
ARG_OF_PERICENTER = 264.4545
MEAN_ANOMALY   = 93.9694

EPHEMERIS_TYPE = 0
CLASSIFICATION_TYPE = U
NORAD_CAT_ID   = 81605
ELEMENT_SET_NO = 999
REV_AT_EPOCH   = 19786
BSTAR          = -.432E-2
MEAN_MOTION_DOT = -.1153E-4
MEAN_MOTION_DDOT = 0

CCSDS_OMM_VERS = 2.0
CREATION_DATE  = 
ORIGINATOR     = 

OBJECT_NAME    = UNKNOWN
OBJECT_ID      = 
CENTER_NAME    = EARTH
REF_FRAME      = TEME
TIME_SYSTEM    = UTC
MEAN_ELEMENT_THEORY = SGP/SGP4

EPOCH          = 2026-03-13T22:36:27.029664
MEAN_MOTION    = 12.38240507
ECCENTRICITY   = .0358822
INCLINATION    = 101.8535
RA_OF_ASC_NODE = 71.0508
ARG_OF_PERICENTER = 339.0132
MEAN_ANOMALY   = 19.6520

EPHEMERIS_TYPE = 0
CLASSIFICATION_TYPE = U
NORAD_CAT_ID   = 81614
ELEMENT_SET_NO = 999
REV_AT_EPOCH   = 54926
BSTAR          = .36268E-1
MEAN_MOTION_DOT = .5869E-4
MEAN_MOTION_DDOT = 0

CCSDS_OMM_VERS = 2.0
CREATION_DATE  = 
ORIGINATOR     = 

OBJECT_NAME    = UNKNOWN
OBJECT_ID      = 
CENTER_NAME    = EARTH
REF_FRAME      = TEME
TIME_SYSTEM    = UTC
MEAN_ELEMENT_THEORY = SGP/SGP4

EPOCH          = 2026-03-12T10:57:57.138048
MEAN_MOTION    = 13.34489774
ECCENTRICITY   = .076643
INCLINATION    = 65.8271
RA_OF_ASC_NODE = 213.0084
ARG_OF_PERICENTER = 94.5835
MEAN_ANOMALY   = 274.3083

EPHEMERIS_TYPE = 0
CLASSIFICATION_TYPE = U
NORAD_CAT_ID   = 81615
ELEMENT_SET_NO = 999
REV_AT_EPOCH   = 59483
BSTAR          = .89034E-3
MEAN_MOTION_DOT = .2424E-4
MEAN_MOTION_DDOT = 0

CCSDS_OMM_VERS = 2.0
CREATION_DATE  = 
ORIGINATOR     = 

OBJECT_NAME    = UNKNOWN
OBJECT_ID      = 
CENTER_NAME    = EARTH
REF_FRAME      = TEME
TIME_SYSTEM    = UTC
MEAN_ELEMENT_THEORY = SGP/SGP4

EPOCH          = 2026-03-14T06:36:10.169280
MEAN_MOTION    = 12.57609784
ECCENTRICITY   = .0031506
INCLINATION    = 101.2688
RA_OF_ASC_NODE = 248.7654
ARG_OF_PERICENTER = 61.9361
MEAN_ANOMALY   = 298.4895

EPHEMERIS_TYPE = 0
CLASSIFICATION_TYPE = U
NORAD_CAT_ID   = 81617
ELEMENT_SET_NO = 999
REV_AT_EPOCH   = 56461
BSTAR          = .25353E-2
MEAN_MOTION_DOT = .385E-5
MEAN_MOTION_DDOT = 0

CCSDS_OMM_VERS = 2.0
CREATION_DATE  = 
ORIGINATOR     = 

OBJECT_NAME    = UNKNOWN
OBJECT_ID      = 
CENTER_NAME    = EARTH
REF_FRAME      = TEME
TIME_SYSTEM    = UTC
MEAN_ELEMENT_THEORY = SGP/SGP4

EPOCH          = 2026-02-26T01:53:09.671424
MEAN_MOTION    = 14.72174479
ECCENTRICITY   = .0063505
INCLINATION    = 66.9770
RA_OF_ASC_NODE = 318.5702
ARG_OF_PERICENTER = 176.9023
MEAN_ANOMALY   = 183.2505

EPHEMERIS_TYPE = 0
CLASSIFICATION_TYPE = U
NORAD_CAT_ID   = 81624
ELEMENT_SET_NO = 999
REV_AT_EPOCH   = 65079
BSTAR          = .72056E-3
MEAN_MOTION_DOT = .4588E-4
MEAN_MOTION_DDOT = 0

CCSDS_OMM_VERS = 2.0
CREATION_DATE  = 
ORIGINATOR     = 

OBJECT_NAME    = UNKNOWN
OBJECT_ID      = 
CENTER_NAME    = EARTH
REF_FRAME      = TEME
TIME_SYSTEM    = UTC
MEAN_ELEMENT_THEORY = SGP/SGP4

EPOCH          = 2026-03-12T15:56:50.381664
MEAN_MOTION    = 12.57306961
ECCENTRICITY   = .097957
INCLINATION    = 65.8260
RA_OF_ASC_NODE = 308.0955
ARG_OF_PERICENTER = 40.9327
MEAN_ANOMALY   = 326.1165

EPHEMERIS_TYPE = 0
CLASSIFICATION_TYPE = U
NORAD_CAT_ID   = 81640
ELEMENT_SET_NO = 999
REV_AT_EPOCH   = 52138
BSTAR          = .49881E-3
MEAN_MOTION_DOT = .489E-5
MEAN_MOTION_DDOT = 0

CCSDS_OMM_VERS = 2.0
CREATION_DATE  = 
ORIGINATOR     = 

OBJECT_NAME    = UNKNOWN
OBJECT_ID      = 
CENTER_NAME    = EARTH
REF_FRAME      = TEME
TIME_SYSTEM    = UTC
MEAN_ELEMENT_THEORY = SGP/SGP4

EPOCH          = 2026-03-13T06:10:53.087232
MEAN_MOTION    = 13.44507057
ECCENTRICITY   = .0363517
INCLINATION    = 102.1448
RA_OF_ASC_NODE = 344.5238
ARG_OF_PERICENTER = 157.2572
MEAN_ANOMALY   = 354.3074

EPHEMERIS_TYPE = 0
CLASSIFICATION_TYPE = U
NORAD_CAT_ID   = 81652
ELEMENT_SET_NO = 999
REV_AT_EPOCH   = 59081
BSTAR          = .70006E-3
MEAN_MOTION_DOT = .548E-5
MEAN_MOTION_DDOT = 0

CCSDS_OMM_VERS = 2.0
CREATION_DATE  = 
ORIGINATOR     = 

OBJECT_NAME    = UNKNOWN
OBJECT_ID      = 
CENTER_NAME    = EARTH
REF_FRAME      = TEME
TIME_SYSTEM    = UTC
MEAN_ELEMENT_THEORY = SGP/SGP4

EPOCH          = 2026-03-13T20:08:09.357216
MEAN_MOTION    = 14.48579658
ECCENTRICITY   = .0014665
INCLINATION    = 74.0383
RA_OF_ASC_NODE = 225.9996
ARG_OF_PERICENTER = 137.3687
MEAN_ANOMALY   = 222.8614

EPHEMERIS_TYPE = 0
CLASSIFICATION_TYPE = U
NORAD_CAT_ID   = 81667
ELEMENT_SET_NO = 999
REV_AT_EPOCH   = 46983
BSTAR          = .96071E-3
MEAN_MOTION_DOT = .3591E-4
MEAN_MOTION_DDOT = 0

CCSDS_OMM_VERS = 2.0
CREATION_DATE  = 
ORIGINATOR     = 

OBJECT_NAME    = UNKNOWN
OBJECT_ID      = 
CENTER_NAME    = EARTH
REF_FRAME      = TEME
TIME_SYSTEM    = UTC
MEAN_ELEMENT_THEORY = SGP/SGP4

EPOCH          = 2026-03-11T13:58:28.329312
MEAN_MOTION    = 14.10159484
ECCENTRICITY   = .002382
INCLINATION    = 66.8276
RA_OF_ASC_NODE = 140.5396
ARG_OF_PERICENTER = 174.4973
MEAN_ANOMALY   = 255.3823

EPHEMERIS_TYPE = 0
CLASSIFICATION_TYPE = U
NORAD_CAT_ID   = 81674
ELEMENT_SET_NO = 999
REV_AT_EPOCH   = 62624
BSTAR          = .77691E-3
MEAN_MOTION_DOT = .1299E-4
MEAN_MOTION_DDOT = 0

CCSDS_OMM_VERS = 2.0
CREATION_DATE  = 
ORIGINATOR     = 

OBJECT_NAME    = UNKNOWN
OBJECT_ID      = 
CENTER_NAME    = EARTH
REF_FRAME      = TEME
TIME_SYSTEM    = UTC
MEAN_ELEMENT_THEORY = SGP/SGP4

EPOCH          = 2026-03-13T18:20:00.772512
MEAN_MOTION    = 14.58111151
ECCENTRICITY   = .0022683
INCLINATION    = 81.2162
RA_OF_ASC_NODE = 199.3260
ARG_OF_PERICENTER = 20.2739
MEAN_ANOMALY   = 339.9354

EPHEMERIS_TYPE = 0
CLASSIFICATION_TYPE = U
NORAD_CAT_ID   = 81683
ELEMENT_SET_NO = 999
REV_AT_EPOCH   = 64912
BSTAR          = .10655E-2
MEAN_MOTION_DOT = .4937E-4
MEAN_MOTION_DDOT = 0

CCSDS_OMM_VERS = 2.0
CREATION_DATE  = 
ORIGINATOR     = 

OBJECT_NAME    = UNKNOWN
OBJECT_ID      = 
CENTER_NAME    = EARTH
REF_FRAME      = TEME
TIME_SYSTEM    = UTC
MEAN_ELEMENT_THEORY = SGP/SGP4

EPOCH          = 2026-03-14T13:55:50.128320
MEAN_MOTION    = 14.40893369
ECCENTRICITY   = .0002921
INCLINATION    = 70.9994
RA_OF_ASC_NODE = 186.4098
ARG_OF_PERICENTER = 59.2994
MEAN_ANOMALY   = 300.8430

EPHEMERIS_TYPE = 0
CLASSIFICATION_TYPE = U
NORAD_CAT_ID   = 81745
ELEMENT_SET_NO = 999
REV_AT_EPOCH   = 64297
BSTAR          = .11033E-2
MEAN_MOTION_DOT = .3492E-4
MEAN_MOTION_DDOT = 0

CCSDS_OMM_VERS = 2.0
CREATION_DATE  = 
ORIGINATOR     = 

OBJECT_NAME    = UNKNOWN
OBJECT_ID      = 
CENTER_NAME    = EARTH
REF_FRAME      = TEME
TIME_SYSTEM    = UTC
MEAN_ELEMENT_THEORY = SGP/SGP4

EPOCH          = 2026-03-14T15:10:30.529920
MEAN_MOTION    = 14.42304395
ECCENTRICITY   = .0012812
INCLINATION    = 82.9204
RA_OF_ASC_NODE = 148.0533
ARG_OF_PERICENTER = 318.3725
MEAN_ANOMALY   = 41.6492

EPHEMERIS_TYPE = 0
CLASSIFICATION_TYPE = U
NORAD_CAT_ID   = 81775
ELEMENT_SET_NO = 999
REV_AT_EPOCH   = 63851
BSTAR          = .2257E-2
MEAN_MOTION_DOT = .7475E-4
MEAN_MOTION_DDOT = 0

